{"fetched_at":"2026-07-20T07:40:25.481Z","source":"https://celestrak.org/NORAD/elements/gp.php?GROUP=planet&FORMAT=JSON","constellation":"superdove","records":[{"OBJECT_NAME":"FLOCK 4G-23","OBJECT_ID":"2025-009AQ","EPOCH":"2026-07-19T19:00:02.257056","CLASSIFICATION_TYPE":"U","MEAN_MOTION":15.34987599,"ECCENTRICITY":0.0003537,"INCLINATION":97.3912,"RA_OF_ASC_NODE":282.4918,"ARG_OF_PERICENTER":162.3465,"MEAN_ANOMALY":197.7902,"EPHEMERIS_TYPE":0,"NORAD_CAT_ID":62647,"ELEMENT_SET_NO":999,"REV_AT_EPOCH":8392,"BSTAR":0.00072176,"MEAN_MOTION_DOT":0.0002447,"MEAN_MOTION_DDOT":0},{"OBJECT_NAME":"FLOCK 4G-34","OBJECT_ID":"2025-009AT","EPOCH":"2026-07-19T18:29:13.278912","CLASSIFICATION_TYPE":"U","MEAN_MOTION":15.29827327,"ECCENTRICITY":0.0002734,"INCLINATION":97.3954,"RA_OF_ASC_NODE":282.1977,"ARG_OF_PERICENTER":152.9105,"MEAN_ANOMALY":207.2278,"EPHEMERIS_TYPE":0,"NORAD_CAT_ID":62650,"ELEMENT_SET_NO":999,"REV_AT_EPOCH":8389,"BSTAR":0.00019953,"MEAN_MOTION_DOT":0.00005687,"MEAN_MOTION_DDOT":0},{"OBJECT_NAME":"FLOCK 4G-21","OBJECT_ID":"2025-009AU","EPOCH":"2026-07-19T17:53:10.043232","CLASSIFICATION_TYPE":"U","MEAN_MOTION":15.33059539,"ECCENTRICITY":0.0003612,"INCLINATION":97.3977,"RA_OF_ASC_NODE":283.1998,"ARG_OF_PERICENTER":177.9223,"MEAN_ANOMALY":182.2035,"EPHEMERIS_TYPE":0,"NORAD_CAT_ID":62651,"ELEMENT_SET_NO":999,"REV_AT_EPOCH":8394,"BSTAR":0.00060743,"MEAN_MOTION_DOT":0.00019351,"MEAN_MOTION_DDOT":0},{"OBJECT_NAME":"FLOCK 4G-31","OBJECT_ID":"2025-009AV","EPOCH":"2026-07-19T17:38:54.976992","CLASSIFICATION_TYPE":"U","MEAN_MOTION":15.29631572,"ECCENTRICITY":0.0002315,"INCLINATION":97.3958,"RA_OF_ASC_NODE":282.1342,"ARG_OF_PERICENTER":150.759,"MEAN_ANOMALY":209.3781,"EPHEMERIS_TYPE":0,"NORAD_CAT_ID":62652,"ELEMENT_SET_NO":999,"REV_AT_EPOCH":8388,"BSTAR":0.00018836,"MEAN_MOTION_DOT":0.00005332,"MEAN_MOTION_DDOT":0},{"OBJECT_NAME":"FLOCK 4G-4","OBJECT_ID":"2025-009BC","EPOCH":"2026-07-19T18:22:05.234304","CLASSIFICATION_TYPE":"U","MEAN_MOTION":15.32334322,"ECCENTRICITY":0.0005147,"INCLINATION":97.3934,"RA_OF_ASC_NODE":281.992,"ARG_OF_PERICENTER":177.7444,"MEAN_ANOMALY":182.3822,"EPHEMERIS_TYPE":0,"NORAD_CAT_ID":62659,"ELEMENT_SET_NO":999,"REV_AT_EPOCH":14149,"BSTAR":0.00065136,"MEAN_MOTION_DOT":0.00020296,"MEAN_MOTION_DDOT":0},{"OBJECT_NAME":"FLOCK 4G-6","OBJECT_ID":"2025-009BD","EPOCH":"2026-07-19T18:55:49.175040","CLASSIFICATION_TYPE":"U","MEAN_MOTION":15.30023682,"ECCENTRICITY":0.0003382,"INCLINATION":97.3931,"RA_OF_ASC_NODE":282.0404,"ARG_OF_PERICENTER":185.1075,"MEAN_ANOMALY":175.0132,"EPHEMERIS_TYPE":0,"NORAD_CAT_ID":62660,"ELEMENT_SET_NO":999,"REV_AT_EPOCH":14148,"BSTAR":0.00017653,"MEAN_MOTION_DOT":0.00005054,"MEAN_MOTION_DDOT":0},{"OBJECT_NAME":"FLOCK 4G-2","OBJECT_ID":"2025-009BE","EPOCH":"2026-07-19T18:45:04.294080","CLASSIFICATION_TYPE":"U","MEAN_MOTION":15.30381076,"ECCENTRICITY":0.000421,"INCLINATION":97.3999,"RA_OF_ASC_NODE":282.6816,"ARG_OF_PERICENTER":185.2597,"MEAN_ANOMALY":174.86,"EPHEMERIS_TYPE":0,"NORAD_CAT_ID":62661,"ELEMENT_SET_NO":999,"REV_AT_EPOCH":14151,"BSTAR":0.00019712,"MEAN_MOTION_DOT":0.00005716,"MEAN_MOTION_DDOT":0},{"OBJECT_NAME":"FLOCK 4G-5","OBJECT_ID":"2025-009BG","EPOCH":"2026-07-19T18:35:16.168416","CLASSIFICATION_TYPE":"U","MEAN_MOTION":15.30952976,"ECCENTRICITY":0.0003934,"INCLINATION":97.4018,"RA_OF_ASC_NODE":283.0797,"ARG_OF_PERICENTER":167.3503,"MEAN_ANOMALY":192.7838,"EPHEMERIS_TYPE":0,"NORAD_CAT_ID":62663,"ELEMENT_SET_NO":999,"REV_AT_EPOCH":8392,"BSTAR":0.00016988,"MEAN_MOTION_DOT":0.00005003,"MEAN_MOTION_DDOT":0},{"OBJECT_NAME":"FLOCK 4G-1","OBJECT_ID":"2025-009BK","EPOCH":"2026-07-19T18:23:55.032288","CLASSIFICATION_TYPE":"U","MEAN_MOTION":15.30241945,"ECCENTRICITY":0.0004476,"INCLINATION":97.4012,"RA_OF_ASC_NODE":282.6458,"ARG_OF_PERICENTER":183.0037,"MEAN_ANOMALY":177.1177,"EPHEMERIS_TYPE":0,"NORAD_CAT_ID":62666,"ELEMENT_SET_NO":999,"REV_AT_EPOCH":8389,"BSTAR":0.00020626,"MEAN_MOTION_DOT":0.00005959,"MEAN_MOTION_DDOT":0},{"OBJECT_NAME":"FLOCK 4G-14","OBJECT_ID":"2025-009BL","EPOCH":"2026-07-19T19:10:39.211680","CLASSIFICATION_TYPE":"U","MEAN_MOTION":15.29789931,"ECCENTRICITY":0.0004678,"INCLINATION":97.4015,"RA_OF_ASC_NODE":282.4718,"ARG_OF_PERICENTER":178.4123,"MEAN_ANOMALY":181.7133,"EPHEMERIS_TYPE":0,"NORAD_CAT_ID":62667,"ELEMENT_SET_NO":999,"REV_AT_EPOCH":8388,"BSTAR":0.00020442,"MEAN_MOTION_DOT":0.00005823,"MEAN_MOTION_DDOT":0},{"OBJECT_NAME":"FLOCK 4G-10","OBJECT_ID":"2025-009BP","EPOCH":"2026-07-19T19:25:55.589088","CLASSIFICATION_TYPE":"U","MEAN_MOTION":15.29892428,"ECCENTRICITY":0.0004221,"INCLINATION":97.3912,"RA_OF_ASC_NODE":281.7744,"ARG_OF_PERICENTER":194.7566,"MEAN_ANOMALY":165.3551,"EPHEMERIS_TYPE":0,"NORAD_CAT_ID":62670,"ELEMENT_SET_NO":999,"REV_AT_EPOCH":14152,"BSTAR":0.00020556,"MEAN_MOTION_DOT":0.00005874,"MEAN_MOTION_DDOT":0},{"OBJECT_NAME":"FLOCK 4G-36","OBJECT_ID":"2025-009BU","EPOCH":"2026-07-19T16:09:46.912032","CLASSIFICATION_TYPE":"U","MEAN_MOTION":15.2986549,"ECCENTRICITY":0.0004781,"INCLINATION":97.4003,"RA_OF_ASC_NODE":282.2681,"ARG_OF_PERICENTER":184.2832,"MEAN_ANOMALY":175.8369,"EPHEMERIS_TYPE":0,"NORAD_CAT_ID":62675,"ELEMENT_SET_NO":999,"REV_AT_EPOCH":8386,"BSTAR":0.00019988,"MEAN_MOTION_DOT":0.00005705,"MEAN_MOTION_DDOT":0},{"OBJECT_NAME":"FLOCK 4G-15","OBJECT_ID":"2025-009BX","EPOCH":"2026-07-19T19:27:44.982720","CLASSIFICATION_TYPE":"U","MEAN_MOTION":15.29956365,"ECCENTRICITY":0.0005014,"INCLINATION":97.4005,"RA_OF_ASC_NODE":282.5485,"ARG_OF_PERICENTER":180.864,"MEAN_ANOMALY":179.2592,"EPHEMERIS_TYPE":0,"NORAD_CAT_ID":62678,"ELEMENT_SET_NO":999,"REV_AT_EPOCH":14153,"BSTAR":0.00019896,"MEAN_MOTION_DOT":0.00005695,"MEAN_MOTION_DDOT":0},{"OBJECT_NAME":"FLOCK 4G-30","OBJECT_ID":"2025-009BY","EPOCH":"2026-07-19T17:48:19.931904","CLASSIFICATION_TYPE":"U","MEAN_MOTION":15.34157636,"ECCENTRICITY":0.0004778,"INCLINATION":97.3902,"RA_OF_ASC_NODE":282.0243,"ARG_OF_PERICENTER":182.9052,"MEAN_ANOMALY":177.2164,"EPHEMERIS_TYPE":0,"NORAD_CAT_ID":62679,"ELEMENT_SET_NO":999,"REV_AT_EPOCH":14153,"BSTAR":0.00063672,"MEAN_MOTION_DOT":0.0002101,"MEAN_MOTION_DDOT":0},{"OBJECT_NAME":"FLOCK 4G-18","OBJECT_ID":"2025-009BZ","EPOCH":"2026-07-19T18:16:32.452608","CLASSIFICATION_TYPE":"U","MEAN_MOTION":15.3239598,"ECCENTRICITY":0.0006587,"INCLINATION":97.3998,"RA_OF_ASC_NODE":282.4328,"ARG_OF_PERICENTER":195.0449,"MEAN_ANOMALY":165.0598,"EPHEMERIS_TYPE":0,"NORAD_CAT_ID":62680,"ELEMENT_SET_NO":999,"REV_AT_EPOCH":14152,"BSTAR":0.0006368,"MEAN_MOTION_DOT":0.00019883,"MEAN_MOTION_DDOT":0},{"OBJECT_NAME":"FLOCK 4G-17","OBJECT_ID":"2025-009CA","EPOCH":"2026-07-19T18:30:47.314080","CLASSIFICATION_TYPE":"U","MEAN_MOTION":15.30137273,"ECCENTRICITY":0.0004552,"INCLINATION":97.391,"RA_OF_ASC_NODE":281.9754,"ARG_OF_PERICENTER":195.762,"MEAN_ANOMALY":164.348,"EPHEMERIS_TYPE":0,"NORAD_CAT_ID":62681,"ELEMENT_SET_NO":999,"REV_AT_EPOCH":14153,"BSTAR":0.00020168,"MEAN_MOTION_DOT":0.00005806,"MEAN_MOTION_DDOT":0}]}
