FLOCK 4G-23             
1 62647U 25009AQ  26200.79169279  .00024470  00000+0  72176-3 0  9993
2 62647  97.3912 282.4918 0003537 162.3465 197.7902 15.34987599 83924
FLOCK 4G-34             
1 62650U 25009AT  26200.77029258  .00005687  00000+0  19953-3 0  9990
2 62650  97.3954 282.1977 0002734 152.9105 207.2278 15.29827327 83895
FLOCK 4G-21             
1 62651U 25009AU  26200.74525513  .00019351  00000+0  60743-3 0  9999
2 62651  97.3977 283.1998 0003612 177.9223 182.2035 15.33059539 83945
FLOCK 4G-31             
1 62652U 25009AV  26200.73535853  .00005332  00000+0  18836-3 0  9997
2 62652  97.3958 282.1342 0002315 150.7590 209.3781 15.29631572 83882
FLOCK 4G-4              
1 62659U 25009BC  26200.76533836  .00020296  00000+0  65136-3 0  9997
2 62659  97.3934 281.9920 0005147 177.7444 182.3822 15.32334322141490
FLOCK 4G-6              
1 62660U 25009BD  26200.78876360  .00005054  00000+0  17653-3 0  9999
2 62660  97.3931 282.0404 0003382 185.1075 175.0132 15.30023682141484
FLOCK 4G-2              
1 62661U 25009BE  26200.78129970  .00005716  00000+0  19712-3 0  9991
2 62661  97.3999 282.6816 0004210 185.2597 174.8600 15.30381076141518
FLOCK 4G-5              
1 62663U 25009BG  26200.77449269  .00005003  00000+0  16988-3 0  9999
2 62663  97.4018 283.0797 0003934 167.3503 192.7838 15.30952976 83921
FLOCK 4G-1              
1 62666U 25009BK  26200.76660917  .00005959  00000+0  20626-3 0  9990
2 62666  97.4012 282.6458 0004476 183.0037 177.1177 15.30241945 83892
FLOCK 4G-14             
1 62667U 25009BL  26200.79906495  .00005823  00000+0  20442-3 0  9994
2 62667  97.4015 282.4718 0004678 178.4123 181.7133 15.29789931 83883
FLOCK 4G-10             
1 62670U 25009BP  26200.80967117  .00005874  00000+0  20556-3 0  9990
2 62670  97.3912 281.7744 0004221 194.7566 165.3551 15.29892428141523
FLOCK 4G-36             
1 62675U 25009BU  26200.67345963  .00005705  00000+0  19988-3 0  9999
2 62675  97.4003 282.2681 0004781 184.2832 175.8369 15.29865490 83861
FLOCK 4G-15             
1 62678U 25009BX  26200.81093730  .00005695  00000+0  19896-3 0  9996
2 62678  97.4005 282.5485 0005014 180.8640 179.2592 15.29956365141537
FLOCK 4G-30             
1 62679U 25009BY  26200.74189736  .00021010  00000+0  63672-3 0  9991
2 62679  97.3902 282.0243 0004778 182.9052 177.2164 15.34157636141539
FLOCK 4G-18             
1 62680U 25009BZ  26200.76148672  .00019883  00000+0  63680-3 0  9993
2 62680  97.3998 282.4328 0006587 195.0449 165.0598 15.32395980141528
FLOCK 4G-17             
1 62681U 25009CA  26200.77138095  .00005806  00000+0  20168-3 0  9997
2 62681  97.3910 281.9754 0004552 195.7620 164.3480 15.30137273141538
